ION SCV-004             
1 50993U 22002K   26068.68892644  .00006538  00000+0  23198-3 0  9998
2 50993  97.2961 128.2294 0007216   1.6783 358.4480 15.29369331230088
STARLINK-30204          
1 57472U 23107R   26068.14147862  .00001393  00000+0  61620-4 0  9997
2 57472  43.0031 339.1618 0001825  10.6068 349.4822 15.26731738145067
